{
 "generated_at": "2026-07-08T07:29:27Z",
 "sources": [
  {
   "name": "CelesTrak",
   "url": "https://celestrak.org/NORAD/elements/",
   "license": "frei verfügbar; Attribution. Ursprünglich USSPACECOM/Space-Track."
  },
  {
   "name": "GCAT (J. McDowell, planet4589.org)",
   "url": "https://planet4589.org/space/gcat/",
   "license": "CC-BY 4.0"
  }
 ],
 "satellites": [
  {
   "norad": 28376,
   "name": "AURA",
   "intl": "2004-026A",
   "group": "resource",
   "gcat": {
    "class": "C",
    "category": "EOSCI",
    "owner": "GSFC",
    "state": "US"
   },
   "omm": {
    "OBJECT_NAME": "AURA",
    "OBJECT_ID": "2004-026A",
    "EPOCH": "2026-07-07T17:35:06.624384",
    "MEAN_MOTION": 14.61360464,
    "ECCENTRICITY": 0.0001221,
    "INCLINATION": 98.3426,
    "RA_OF_ASC_NODE": 145.3575,
    "ARG_OF_PERICENTER": 89.7094,
    "MEAN_ANOMALY": 270.4247,
    "EPHEMERIS_TYPE": 0,
    "CLASSIFICATION_TYPE": "U",
    "NORAD_CAT_ID": 28376,
    "ELEMENT_SET_NO": 999,
    "REV_AT_EPOCH": 16921,
    "BSTAR": 0.000139,
    "MEAN_MOTION_DOT": 0.00000639,
    "MEAN_MOTION_DDOT": 0
   }
  },
  {
   "norad": 63772,
   "name": "BIOMASS",
   "intl": "2025-090A",
   "group": "resource",
   "gcat": {
    "class": "C",
    "category": "EOSCI",
    "owner": "ESA",
    "state": "I-ESA"
   },
   "omm": {
    "OBJECT_NAME": "BIOMASS",
    "OBJECT_ID": "2025-090A",
    "EPOCH": "2026-07-07T18:19:36.277248",
    "MEAN_MOTION": 14.67536311,
    "ECCENTRICITY": 0.0001419,
    "INCLINATION": 98.0749,
    "RA_OF_ASC_NODE": 15.7771,
    "ARG_OF_PERICENTER": 92.0153,
    "MEAN_ANOMALY": 268.1214,
    "EPHEMERIS_TYPE": 0,
    "CLASSIFICATION_TYPE": "U",
    "NORAD_CAT_ID": 63772,
    "ELEMENT_SET_NO": 999,
    "REV_AT_EPOCH": 6370,
    "BSTAR": 0.00016455,
    "MEAN_MOTION_DOT": 0.00000885,
    "MEAN_MOTION_DDOT": 0
   }
  },
  {
   "norad": 57693,
   "name": "CAPELLA-11 (ACADIA-1)",
   "intl": "2023-126A",
   "group": "sar",
   "gcat": {
    "class": "B",
    "category": "IMG-R",
    "owner": "CAPSP",
    "state": "US"
   },
   "omm": {
    "OBJECT_NAME": "CAPELLA-11 (ACADIA-1)",
    "OBJECT_ID": "2023-126A",
    "EPOCH": "2026-07-07T04:15:44.858592",
    "MEAN_MOTION": 14.84607915,
    "ECCENTRICITY": 0.00021162,
    "INCLINATION": 53.0059,
    "RA_OF_ASC_NODE": 98.1326,
    "ARG_OF_PERICENTER": 116.8039,
    "MEAN_ANOMALY": 243.3157,
    "EPHEMERIS_TYPE": 0,
    "CLASSIFICATION_TYPE": "U",
    "NORAD_CAT_ID": 57693,
    "ELEMENT_SET_NO": 999,
    "REV_AT_EPOCH": 15509,
    "BSTAR": 0.00041589488,
    "MEAN_MOTION_DOT": 0.00003317,
    "MEAN_MOTION_DDOT": 0
   }
  },
  {
   "norad": 60419,
   "name": "CAPELLA-13 (ACADIA-3)",
   "intl": "2024-142A",
   "group": "sar",
   "gcat": {
    "class": "B",
    "category": "IMG-R",
    "owner": "CAPSP",
    "state": "US"
   },
   "omm": {
    "OBJECT_NAME": "CAPELLA-13 (ACADIA-3)",
    "OBJECT_ID": "2024-142A",
    "EPOCH": "2026-07-07T17:22:42.009312",
    "MEAN_MOTION": 14.87659041,
    "ECCENTRICITY": 0.000127,
    "INCLINATION": 53.0057,
    "RA_OF_ASC_NODE": 327.9238,
    "ARG_OF_PERICENTER": 93.2224,
    "MEAN_ANOMALY": 266.8902,
    "EPHEMERIS_TYPE": 0,
    "CLASSIFICATION_TYPE": "U",
    "NORAD_CAT_ID": 60419,
    "ELEMENT_SET_NO": 999,
    "REV_AT_EPOCH": 10346,
    "BSTAR": 0.00038525,
    "MEAN_MOTION_DOT": 0.00003305,
    "MEAN_MOTION_DDOT": 0
   }
  },
  {
   "norad": 59444,
   "name": "CAPELLA-14 (ACADIA-4)",
   "intl": "2024-066C",
   "group": "sar",
   "gcat": {
    "class": "B",
    "category": "IMG-R",
    "owner": "CAPSP",
    "state": "US"
   },
   "omm": {
    "OBJECT_NAME": "CAPELLA-14 (ACADIA-4)",
    "OBJECT_ID": "2024-066C",
    "EPOCH": "2026-07-07T06:58:23.618496",
    "MEAN_MOTION": 15.09659639,
    "ECCENTRICITY": 0.00016674,
    "INCLINATION": 45.602,
    "RA_OF_ASC_NODE": 149.3449,
    "ARG_OF_PERICENTER": 169.4152,
    "MEAN_ANOMALY": 190.6769,
    "EPHEMERIS_TYPE": 0,
    "CLASSIFICATION_TYPE": "U",
    "NORAD_CAT_ID": 59444,
    "ELEMENT_SET_NO": 999,
    "REV_AT_EPOCH": 11552,
    "BSTAR": 0.00060539417,
    "MEAN_MOTION_DOT": 0.00009658,
    "MEAN_MOTION_DDOT": 0
   }
  },
  {
   "norad": 60544,
   "name": "CAPELLA-15 (ACADIA-5)",
   "intl": "2024-149CE",
   "group": "sar",
   "gcat": {
    "class": "B",
    "category": "IMG-R",
    "owner": "CAPSP",
    "state": "US"
   },
   "omm": {
    "OBJECT_NAME": "CAPELLA-15 (ACADIA-5)",
    "OBJECT_ID": "2024-149CE",
    "EPOCH": "2026-07-07T18:31:46.421184",
    "MEAN_MOTION": 14.92384542,
    "ECCENTRICITY": 0.0003729,
    "INCLINATION": 97.6767,
    "RA_OF_ASC_NODE": 261.1588,
    "ARG_OF_PERICENTER": 10.0044,
    "MEAN_ANOMALY": 350.1248,
    "EPHEMERIS_TYPE": 0,
    "CLASSIFICATION_TYPE": "U",
    "NORAD_CAT_ID": 60544,
    "ELEMENT_SET_NO": 999,
    "REV_AT_EPOCH": 10292,
    "BSTAR": 0.00020241,
    "MEAN_MOTION_DOT": 0.00002017,
    "MEAN_MOTION_DDOT": 0
   }
  },
  {
   "norad": 65318,
   "name": "CAPELLA-16 (ACADIA-6)",
   "intl": "2025-188D",
   "group": "sar",
   "gcat": {
    "class": "B",
    "category": "IMG-R",
    "owner": "CAPSP",
    "state": "US"
   },
   "omm": {
    "OBJECT_NAME": "CAPELLA-16 (ACADIA-6)",
    "OBJECT_ID": "2025-188D",
    "EPOCH": "2026-07-07T17:16:45.702624",
    "MEAN_MOTION": 14.93996016,
    "ECCENTRICITY": 0.0005093,
    "INCLINATION": 97.7375,
    "RA_OF_ASC_NODE": 263.5641,
    "ARG_OF_PERICENTER": 155.0168,
    "MEAN_ANOMALY": 205.13,
    "EPHEMERIS_TYPE": 0,
    "CLASSIFICATION_TYPE": "U",
    "NORAD_CAT_ID": 65318,
    "ELEMENT_SET_NO": 999,
    "REV_AT_EPOCH": 4698,
    "BSTAR": 0.00031591,
    "MEAN_MOTION_DOT": 0.00003311,
    "MEAN_MOTION_DDOT": 0
   }
  },
  {
   "norad": 64583,
   "name": "CAPELLA-17 (ACADIA-7)",
   "intl": "2025-135BH",
   "group": "sar",
   "gcat": {
    "class": "B",
    "category": "IMG-R",
    "owner": "CAPSP",
    "state": "US"
   },
   "omm": {
    "OBJECT_NAME": "CAPELLA-17 (ACADIA-7)",
    "OBJECT_ID": "2025-135BH",
    "EPOCH": "2026-07-07T19:12:31.154112",
    "MEAN_MOTION": 14.91568241,
    "ECCENTRICITY": 0.0003715,
    "INCLINATION": 97.7699,
    "RA_OF_ASC_NODE": 302.1178,
    "ARG_OF_PERICENTER": 283.3288,
    "MEAN_ANOMALY": 76.7516,
    "EPHEMERIS_TYPE": 0,
    "CLASSIFICATION_TYPE": "U",
    "NORAD_CAT_ID": 64583,
    "ELEMENT_SET_NO": 999,
    "REV_AT_EPOCH": 5692,
    "BSTAR": 0.00047441,
    "MEAN_MOTION_DOT": 0.00004703,
    "MEAN_MOTION_DDOT": 0
   }
  },
  {
   "norad": 67385,
   "name": "CAPELLA-18 (ACADIA-8)",
   "intl": "2026-004Y",
   "group": "sar",
   "gcat": {
    "class": "B",
    "category": "IMG-R",
    "owner": "CAPSP",
    "state": "US"
   },
   "omm": {
    "OBJECT_NAME": "CAPELLA-18 (ACADIA-8)",
    "OBJECT_ID": "2026-004Y",
    "EPOCH": "2026-07-07T11:14:24.046368",
    "MEAN_MOTION": 14.86636226,
    "ECCENTRICITY": 0.00015484,
    "INCLINATION": 97.8013,
    "RA_OF_ASC_NODE": 186.6279,
    "ARG_OF_PERICENTER": 86.8414,
    "MEAN_ANOMALY": 273.2979,
    "EPHEMERIS_TYPE": 0,
    "CLASSIFICATION_TYPE": "U",
    "NORAD_CAT_ID": 67385,
    "ELEMENT_SET_NO": 999,
    "REV_AT_EPOCH": 2629,
    "BSTAR": 0.00012492646,
    "MEAN_MOTION_DOT": 0.00001055,
    "MEAN_MOTION_DDOT": 0
   }
  },
  {
   "norad": 67384,
   "name": "CAPELLA-19 (ACADIA-9)",
   "intl": "2026-004X",
   "group": "sar",
   "gcat": {
    "class": "B",
    "category": "IMG-R",
    "owner": "CAPSP",
    "state": "US"
   },
   "omm": {
    "OBJECT_NAME": "CAPELLA-19 (ACADIA-9)",
    "OBJECT_ID": "2026-004X",
    "EPOCH": "2026-07-06T23:41:29.575968",
    "MEAN_MOTION": 14.86641894,
    "ECCENTRICITY": 0.00018971,
    "INCLINATION": 97.7975,
    "RA_OF_ASC_NODE": 186.0054,
    "ARG_OF_PERICENTER": 95.2342,
    "MEAN_ANOMALY": 264.9091,
    "EPHEMERIS_TYPE": 0,
    "CLASSIFICATION_TYPE": "U",
    "NORAD_CAT_ID": 67384,
    "ELEMENT_SET_NO": 999,
    "REV_AT_EPOCH": 2621,
    "BSTAR": 0.00042121926,
    "MEAN_MOTION_DOT": 0.00003686,
    "MEAN_MOTION_DDOT": 0
   }
  }
 ]
}
